{"type": "FeatureCollection", "features": [ {"type": "Feature", "properties": {"norad_id": 66660, "name": "K-HERO", "group": "last-30-days", "lat": 30.830755892015876, "lon": -92.53755792583263, "alt_km": 589.1629171276527, "timestamp": "2025-12-10T20:49:51.346081+00:00", "meta": {"OBJECT_NAME": "K-HERO", "OBJECT_ID": "2025-274L", "EPOCH": "2025-12-10T06:12:53.438112", "MEAN_MOTION": 14.92937795, "ECCENTRICITY": 0.001285, "INCLINATION": 97.7388, "RA_OF_ASC_NODE": 271.519, "ARG_OF_PERICENTER": 290.1663, "MEAN_ANOMALY": 69.8174, "EPHEMERIS_TYPE": 0, "CLASSIFICATION_TYPE": "U", "NORAD_CAT_ID": 66660, "ELEMENT_SET_NO": 999, "REV_AT_EPOCH": 203, "BSTAR": 0.00046639, "MEAN_MOTION_DOT": 4.792e-05, "MEAN_MOTION_DDOT": 0}, "tle": {"line1": "1 66660U 25274L   25344.25895183  .00004792  00000+0  46639-3 0  9995", "line2": "2 66660  97.7388 271.5190 0012850 290.1663  69.8174 14.92937795  2032"}}, "geometry": {"type": "Point", "coordinates": [-92.53755792583263, 30.830755892015876]}}, {"type": "Feature", "properties": {"norad_id": 66661, "name": "SNUGLITE-III", "group": "last-30-days", "lat": 38.39407212293697, "lon": -94.06511808819805, "alt_km": 588.6739638750578, "timestamp": "2025-12-10T20:49:51.346091+00:00", "meta": {"OBJECT_NAME": "SNUGLITE-III", "OBJECT_ID": "2025-274M", "EPOCH": "2025-12-10T12:36:56.223936", "MEAN_MOTION": 14.93078809, "ECCENTRICITY": 0.00135067, "INCLINATION": 97.7386, "RA_OF_ASC_NODE": 271.7842, "ARG_OF_PERICENTER": 290.3559, "MEAN_ANOMALY": 69.6209, "EPHEMERIS_TYPE": 0, "CLASSIFICATION_TYPE": "U", "NORAD_CAT_ID": 66661, "ELEMENT_SET_NO": 999, "REV_AT_EPOCH": 207, "BSTAR": 0.00034929425, "MEAN_MOTION_DOT": 3.587e-05, "MEAN_MOTION_DDOT": 0}, "tle": {"line1": "1 66661U 25274M   25344.52565074  .00003587  00000+0  34929-3 0  9999", "line2": "2 66661  97.7386 271.7842 0013506 290.3559  69.6209 14.93078809  2076"}}, "geometry": {"type": "Point", "coordinates": [-94.06511808819805, 38.39407212293697]}}, {"type": "Feature", "properties": {"norad_id": 66662, "name": "2025-274N", "group": "last-30-days", "lat": 41.373046802002726, "lon": -94.75661452170074, "alt_km": 588.7099288613354, "timestamp": "2025-12-10T20:49:51.346100+00:00", "meta": {"OBJECT_NAME": "2025-274N", "OBJECT_ID": "2025-274N", "EPOCH": "2025-12-10T12:36:08.551872", "MEAN_MOTION": 14.93128765, "ECCENTRICITY": 0.00139537, "INCLINATION": 97.7385, "RA_OF_ASC_NODE": 271.785, "ARG_OF_PERICENTER": 289.9149, "MEAN_ANOMALY": 70.0567, "EPHEMERIS_TYPE": 0, "CLASSIFICATION_TYPE": "U", "NORAD_CAT_ID": 66662, "ELEMENT_SET_NO": 999, "REV_AT_EPOCH": 207, "BSTAR": 0.00037994085, "MEAN_MOTION_DOT": 3.913e-05, "MEAN_MOTION_DDOT": 0}, "tle": {"line1": "1 66662U 25274N   25344.52509898  .00003913  00000+0  37994-3 0  9990", "line2": "2 66662  97.7385 271.7850 0013953 289.9149  70.0567 14.93128765  2070"}}, "geometry": {"type": "Point", "coordinates": [-94.75661452170074, 41.373046802002726]}}, {"type": "Feature", "properties": {"norad_id": 66663, "name": "KSLV-II R/B", "group": "last-30-days", "lat": -73.95726720244147, "lon": 63.99574206527106, "alt_km": 570.4762985092502, "timestamp": "2025-12-10T20:49:51.346110+00:00", "meta": {"OBJECT_NAME": "KSLV-II R/B", "OBJECT_ID": "2025-274P", "EPOCH": "2025-12-10T14:52:32.871360", "MEAN_MOTION": 14.97259272, "ECCENTRICITY": 0.00513915, "INCLINATION": 97.7407, "RA_OF_ASC_NODE": 271.9813, "ARG_OF_PERICENTER": 327.0111, "MEAN_ANOMALY": 32.7908, "EPHEMERIS_TYPE": 0, "CLASSIFICATION_TYPE": "U", "NORAD_CAT_ID": 66663, "ELEMENT_SET_NO": 999, "REV_AT_EPOCH": 209, "BSTAR": 0.00042304875, "MEAN_MOTION_DOT": 4.973e-05, "MEAN_MOTION_DDOT": 0}, "tle": {"line1": "1 66663U 25274P   25344.61982490  .00004973  00000+0  42305-3 0  9993", "line2": "2 66663  97.7407 271.9813 0051391 327.0111  32.7908 14.97259272  2096"}}, "geometry": {"type": "Point", "coordinates": [63.99574206527106, -73.95726720244147]}}, {"type": "Feature", "properties": {"norad_id": 66664, "name": "SOYUZ-MS 28", "group": "last-30-days", "lat": 16.04403276353519, "lon": 164.9163782688919, "alt_km": 418.59910876098274, "timestamp": "2025-12-10T20:49:51.346120+00:00", "meta": {"OBJECT_NAME": "SOYUZ-MS 28", "OBJECT_ID": "2025-275A", "EPOCH": "2025-12-10T13:00:09.919872", "MEAN_MOTION": 15.49478601, "ECCENTRICITY": 0.00033601, "INCLINATION": 51.6308, "RA_OF_ASC_NODE": 153.362, "ARG_OF_PERICENTER": 230.7092, "MEAN_ANOMALY": 129.3599, "EPHEMERIS_TYPE": 0, "CLASSIFICATION_TYPE": "U", "NORAD_CAT_ID": 66664, "ELEMENT_SET_NO": 999, "REV_AT_EPOCH": 128, "BSTAR": 0.0002844348, "MEAN_MOTION_DOT": 0.00015517, "MEAN_MOTION_DDOT": 0}, "tle": {"line1": "1 66664U 25275A   25344.54178148  .00015517  00000+0  28443-3 0  9997", "line2": "2 66664  51.6308 153.3620 0003360 230.7092 129.3599 15.49478601  1282"}}, "geometry": {"type": "Point", "coordinates": [164.9163782688919, 16.04403276353519]}}, {"type": "Feature", "properties": {"norad_id": 66820, "name": "KOMPSAT-7", "group": "last-30-days", "lat": -28.848476510468682, "lon": -64.98801418619618, "alt_km": 579.3835953575353, "timestamp": "2025-12-10T20:49:51.346137+00:00", "meta": {"OBJECT_NAME": "KOMPSAT-7", "OBJECT_ID": "2025-279A", "EPOCH": "2025-12-10T08:08:20.375808", "MEAN_MOTION": 14.98383323, "ECCENTRICITY": 0.00094465, "INCLINATION": 97.6405, "RA_OF_ASC_NODE": 290.2534, "ARG_OF_PERICENTER": 228.7965, "MEAN_ANOMALY": 131.2444, "EPHEMERIS_TYPE": 0, "CLASSIFICATION_TYPE": "U", "NORAD_CAT_ID": 66820, "ELEMENT_SET_NO": 999, "REV_AT_EPOCH": 129, "BSTAR": 0.00035620703, "MEAN_MOTION_DOT": 4.194e-05, "MEAN_MOTION_DDOT": 0}, "tle": {"line1": "1 66820U 25279A   25344.33912472  .00004194  00000+0  35621-3 0  9993", "line2": "2 66820  97.6405 290.2534 0009446 228.7965 131.2444 14.98383323  1297"}}, "geometry": {"type": "Point", "coordinates": [-64.98801418619618, -28.848476510468682]}}, {"type": "Feature", "properties": {"norad_id": 66877, "name": "ZQ-3 R/B", "group": "last-30-days", "lat": -33.31577388068747, "lon": -89.85038900894862, "alt_km": 149.69703276534074, "timestamp": "2025-12-10T20:49:51.346170+00:00", "meta": {"OBJECT_NAME": "ZQ-3 R/B", "OBJECT_ID": "2025-282A", "EPOCH": "2025-12-10T13:11:34.975104", "MEAN_MOTION": 14.53151085, "ECCENTRICITY": 0.08054604, "INCLINATION": 56.9528, "RA_OF_ASC_NODE": 66.0239, "ARG_OF_PERICENTER": 216.1667, "MEAN_ANOMALY": 138.224, "EPHEMERIS_TYPE": 0, "CLASSIFICATION_TYPE": "U", "NORAD_CAT_ID": 66877, "ELEMENT_SET_NO": 999, "REV_AT_EPOCH": 107, "BSTAR": 0.00026050706, "MEAN_MOTION_DOT": 0.01257378, "MEAN_MOTION_DDOT": 7.372284e-06}, "tle": {"line1": "1 66877U 25282A   25344.54971036  .01257378  73723-5  26051-3 0  9993", "line2": "2 66877  56.9528  66.0239 0805460 216.1667 138.2240 14.53151085  1070"}}, "geometry": {"type": "Point", "coordinates": [-89.85038900894862, -33.31577388068747]}}, {"type": "Feature", "properties": {"norad_id": 66906, "name": "1998-067XS", "group": "last-30-days", "lat": 32.69450562833106, "lon": -177.73500351783687, "alt_km": 413.58482292342524, "timestamp": "2025-12-10T20:49:51.346195+00:00", "meta": {"OBJECT_NAME": "1998-067XS", "OBJECT_ID": "1998-067XS", "EPOCH": "2025-12-10T00:31:58.659744", "MEAN_MOTION": 15.50350034, "ECCENTRICITY": 0.0003912, "INCLINATION": 51.6303, "RA_OF_ASC_NODE": 155.8936, "ARG_OF_PERICENTER": 190.7132, "MEAN_ANOMALY": 169.3774, "EPHEMERIS_TYPE": 0, "CLASSIFICATION_TYPE": "U", "NORAD_CAT_ID": 66906, "ELEMENT_SET_NO": 999, "REV_AT_EPOCH": 119, "BSTAR": 0.00063423893, "MEAN_MOTION_DOT": 0.00036365, "MEAN_MOTION_DDOT": 0}, "tle": {"line1": "1 66906U 98067XS  25344.02220671  .00036365  00000+0  63424-3 0  9999", "line2": "2 66906  51.6303 155.8936 0003912 190.7132 169.3774 15.50350034  1196"}}, "geometry": {"type": "Point", "coordinates": [-177.73500351783687, 32.69450562833106]}}, {"type": "Feature", "properties": {"norad_id": 66907, "name": "1998-067XT", "group": "last-30-days", "lat": 39.02925941353333, "lon": -168.3629100879428, "alt_km": 411.39867451137707, "timestamp": "2025-12-10T20:49:51.346210+00:00", "meta": {"OBJECT_NAME": "1998-067XT", "OBJECT_ID": "1998-067XT", "EPOCH": "2025-12-09T12:07:37.114752", "MEAN_MOTION": 15.50864429, "ECCENTRICITY": 0.00048036, "INCLINATION": 51.6307, "RA_OF_ASC_NODE": 158.4423, "ARG_OF_PERICENTER": 208.5081, "MEAN_ANOMALY": 151.5646, "EPHEMERIS_TYPE": 0, "CLASSIFICATION_TYPE": "U", "NORAD_CAT_ID": 66907, "ELEMENT_SET_NO": 999, "REV_AT_EPOCH": 111, "BSTAR": 0.0012921241, "MEAN_MOTION_DOT": 0.00076342, "MEAN_MOTION_DDOT": 0}, "tle": {"line1": "1 66907U 98067XT  25343.50529068  .00076342  00000+0  12921-2 0  9998", "line2": "2 66907  51.6307 158.4423 0004803 208.5081 151.5646 15.50864429  1113"}}, "geometry": {"type": "Point", "coordinates": [-168.3629100879428, 39.02925941353333]}}, {"type": "Feature", "properties": {"norad_id": 66908, "name": "1998-067XU", "group": "last-30-days", "lat": 39.88005483104565, "lon": -166.87173190833727, "alt_km": 411.02572830664394, "timestamp": "2025-12-10T20:49:51.346221+00:00", "meta": {"OBJECT_NAME": "1998-067XU", "OBJECT_ID": "1998-067XU", "EPOCH": "2025-12-10T14:24:36.801216", "MEAN_MOTION": 15.51106152, "ECCENTRICITY": 0.00048077, "INCLINATION": 51.6304, "RA_OF_ASC_NODE": 153.0048, "ARG_OF_PERICENTER": 213.3115, "MEAN_ANOMALY": 146.7573, "EPHEMERIS_TYPE": 0, "CLASSIFICATION_TYPE": "U", "NORAD_CAT_ID": 66908, "ELEMENT_SET_NO": 999, "REV_AT_EPOCH": 128, "BSTAR": 0.0015174275, "MEAN_MOTION_DOT": 0.00090678, "MEAN_MOTION_DDOT": 0}, "tle": {"line1": "1 66908U 98067XU  25344.60042594  .00090678  00000+0  15174-2 0  9996", "line2": "2 66908  51.6304 153.0048 0004807 213.3115 146.7573 15.51106152  1287"}}, "geometry": {"type": "Point", "coordinates": [-166.87173190833727, 39.88005483104565]}}]}